{
  "type": "FeatureCollection",
  "features": [
    {
      "type": "Feature",
      "properties": {
        "norad_id": 36828,
        "name": "BEIDOU-2 IGSO-1 (C06)",
        "group": "beidou",
        "lat": 4.349252431831596,
        "lon": 167.7878265151808,
        "alt_km": 35970.569592750464,
        "timestamp": "2025-12-11T22:43:47.533633+00:00",
        "meta_object_name": "BEIDOU-2 IGSO-1 (C06)",
        "meta_object_id": "2010-036A",
        "meta_epoch": "2025-12-11T10:35:37.696992",
        "meta_mean_motion": 1.00276405,
        "meta_eccentricity": 0.00512004,
        "meta_inclination": 54.2848,
        "meta_ra_of_asc_node": 164.659,
        "meta_arg_of_pericenter": 215.8299,
        "meta_mean_anomaly": 326.6949,
        "meta_ephemeris_type": 0,
        "meta_classification_type": "U",
        "meta_norad_cat_id": 36828,
        "meta_element_set_no": 999,
        "meta_rev_at_epoch": 5621,
        "meta_bstar": 0,
        "meta_mean_motion_dot": -5.2e-07,
        "meta_mean_motion_ddot": 0,
        "tle_line1": "1 36828U 10036A   25345.44140853 -.00000052  00000+0  00000+0 0  9991",
        "tle_line2": "2 36828  54.2848 164.6590 0051200 215.8299 326.6949  1.00276405 56213"
      },
      "geometry": {
        "type": "Point",
        "coordinates": [
          167.7878265151808,
          4.349252431831596
        ]
      }
    },
    {
      "type": "Feature",
      "properties": {
        "norad_id": 37210,
        "name": "BEIDOU-2 G4 (C04)",
        "group": "beidou",
        "lat": 1.4830904561733862,
        "lon": -138.1208357741729,
        "alt_km": 35749.86096394128,
        "timestamp": "2025-12-11T22:43:47.533657+00:00",
        "meta_object_name": "BEIDOU-2 G4 (C04)",
        "meta_object_id": "2010-057A",
        "meta_epoch": "2025-12-11T14:16:18.193728",
        "meta_mean_motion": 1.00271431,
        "meta_eccentricity": 0.0010933,
        "meta_inclination": 3.1821,
        "meta_ra_of_asc_node": 69.9412,
        "meta_arg_of_pericenter": 190.619,
        "meta_mean_anomaly": 194.1423,
        "meta_ephemeris_type": 0,
        "meta_classification_type": "U",
        "meta_norad_cat_id": 37210,
        "meta_element_set_no": 999,
        "meta_rev_at_epoch": 5541,
        "meta_bstar": 0,
        "meta_mean_motion_dot": -1.05e-06,
        "meta_mean_motion_ddot": 0,
        "tle_line1": "1 37210U 10057A   25345.59465502 -.00000105  00000+0  00000+0 0  9996",
        "tle_line2": "2 37210   3.1821  69.9412 0010933 190.6190 194.1423  1.00271431 55411"
      },
      "geometry": {
        "type": "Point",
        "coordinates": [
          -138.1208357741729,
          1.4830904561733862
        ]
      }
    },
    {
      "type": "Feature",
      "properties": {
        "norad_id": 37256,
        "name": "BEIDOU-2 IGSO-2 (C07)",
        "group": "beidou",
        "lat": -45.97604393260451,
        "lon": 163.22629230221352,
        "alt_km": 35627.44567114374,
        "timestamp": "2025-12-11T22:43:47.533672+00:00",
        "meta_object_name": "BEIDOU-2 IGSO-2 (C07)",
        "meta_object_id": "2010-068A",
        "meta_epoch": "2025-12-03T17:22:36.027840",
        "meta_mean_motion": 1.0028872,
        "meta_eccentricity": 0.00492449,
        "meta_inclination": 47.9042,
        "meta_ra_of_asc_node": 274.2614,
        "meta_arg_of_pericenter": 216.1411,
        "meta_mean_anomaly": 310.24,
        "meta_ephemeris_type": 0,
        "meta_classification_type": "U",
        "meta_norad_cat_id": 37256,
        "meta_element_set_no": 999,
        "meta_rev_at_epoch": 5483,
        "meta_bstar": 0,
        "meta_mean_motion_dot": -2.25e-06,
        "meta_mean_motion_ddot": 0,
        "tle_line1": "1 37256U 10068A   25337.72402810 -.00000225  00000+0  00000+0 0  9990",
        "tle_line2": "2 37256  47.9042 274.2614 0049244 216.1411 310.2400  1.00288720 54834"
      },
      "geometry": {
        "type": "Point",
        "coordinates": [
          163.22629230221352,
          -45.97604393260451
        ]
      }
    },
    {
      "type": "Feature",
      "properties": {
        "norad_id": 37384,
        "name": "BEIDOU-2 IGSO-3 (C08)",
        "group": "beidou",
        "lat": 44.8501938848894,
        "lon": -169.74286693206273,
        "alt_km": 35707.647141108944,
        "timestamp": "2025-12-11T22:43:47.533685+00:00",
        "meta_object_name": "BEIDOU-2 IGSO-3 (C08)",
        "meta_object_id": "2011-013A",
        "meta_epoch": "2025-12-11T15:37:03.975744",
        "meta_mean_motion": 1.00271037,
        "meta_eccentricity": 0.00354451,
        "meta_inclination": 62.1431,
        "meta_ra_of_asc_node": 41.9258,
        "meta_arg_of_pericenter": 187.4472,
        "meta_mean_anomaly": 193.0762,
        "meta_ephemeris_type": 0,
        "meta_classification_type": "U",
        "meta_norad_cat_id": 37384,
        "meta_element_set_no": 999,
        "meta_rev_at_epoch": 5378,
        "meta_bstar": 0,
        "meta_mean_motion_dot": -1.96e-06,
        "meta_mean_motion_ddot": 0,
        "tle_line1": "1 37384U 11013A   25345.65074046 -.00000196  00000+0  00000+0 0  9997",
        "tle_line2": "2 37384  62.1431  41.9258 0035445 187.4472 193.0762  1.00271037 53789"
      },
      "geometry": {
        "type": "Point",
        "coordinates": [
          -169.74286693206273,
          44.8501938848894
        ]
      }
    },
    {
      "type": "Feature",
      "properties": {
        "norad_id": 37763,
        "name": "BEIDOU-2 IGSO-4 (C09)",
        "group": "beidou",
        "lat": -7.845500271948587,
        "lon": 161.71503117746758,
        "alt_km": 36092.14991631616,
        "timestamp": "2025-12-11T22:43:47.533697+00:00",
        "meta_object_name": "BEIDOU-2 IGSO-4 (C09)",
        "meta_object_id": "2011-038A",
        "meta_epoch": "2025-12-10T12:04:03.489024",
        "meta_mean_motion": 1.00284678,
        "meta_eccentricity": 0.01490344,
        "meta_inclination": 54.5829,
        "meta_ra_of_asc_node": 167.3658,
        "meta_arg_of_pericenter": 230.2355,
        "meta_mean_anomaly": 317.2212,
        "meta_ephemeris_type": 0,
        "meta_classification_type": "U",
        "meta_norad_cat_id": 37763,
        "meta_element_set_no": 999,
        "meta_rev_at_epoch": 5275,
        "meta_bstar": 0,
        "meta_mean_motion_dot": 3.6e-07,
        "meta_mean_motion_ddot": 0,
        "tle_line1": "1 37763U 11038A   25344.50281816  .00000036  00000+0  00000+0 0  9995",
        "tle_line2": "2 37763  54.5829 167.3658 0149034 230.2355 317.2212  1.00284678 52751"
      },
      "geometry": {
        "type": "Point",
        "coordinates": [
          161.71503117746758,
          -7.845500271948587
        ]
      }
    },
    {
      "type": "Feature",
      "properties": {
        "norad_id": 37948,
        "name": "BEIDOU-2 IGSO-5 (C10)",
        "group": "beidou",
        "lat": -40.74377933892983,
        "lon": 144.57425115049597,
        "alt_km": 35347.14124857086,
        "timestamp": "2025-12-11T22:43:47.533710+00:00",
        "meta_object_name": "BEIDOU-2 IGSO-5 (C10)",
        "meta_object_id": "2011-073A",
        "meta_epoch": "2025-12-11T15:50:40.325280",
        "meta_mean_motion": 1.00291322,
        "meta_eccentricity": 0.01102376,
        "meta_inclination": 48.022,
        "meta_ra_of_asc_node": 273.8705,
        "meta_arg_of_pericenter": 222.2741,
        "meta_mean_anomaly": 275.0578,
        "meta_ephemeris_type": 0,
        "meta_classification_type": "U",
        "meta_norad_cat_id": 37948,
        "meta_element_set_no": 999,
        "meta_rev_at_epoch": 5125,
        "meta_bstar": 0,
        "meta_mean_motion_dot": -2.2e-06,
        "meta_mean_motion_ddot": 0,
        "tle_line1": "1 37948U 11073A   25345.66018895 -.00000220  00000+0  00000+0 0  9998",
        "tle_line2": "2 37948  48.0220 273.8705 0110237 222.2741 275.0578  1.00291322 51252"
      },
      "geometry": {
        "type": "Point",
        "coordinates": [
          144.57425115049597,
          -40.74377933892983
        ]
      }
    },
    {
      "type": "Feature",
      "properties": {
        "norad_id": 38091,
        "name": "BEIDOU-2 G5 (C05)",
        "group": "beidou",
        "lat": 2.3891071120034613,
        "lon": 120.57460588378474,
        "alt_km": 35837.79677652977,
        "timestamp": "2025-12-11T22:43:47.533723+00:00",
        "meta_object_name": "BEIDOU-2 G5 (C05)",
        "meta_object_id": "2012-008A",
        "meta_epoch": "2025-12-11T16:12:26.428896",
        "meta_mean_motion": 1.00275156,
        "meta_eccentricity": 0.00125769,
        "meta_inclination": 3.1069,
        "meta_ra_of_asc_node": 70.7117,
        "meta_arg_of_pericenter": 227.0621,
        "meta_mean_anomaly": 84.743,
        "meta_ephemeris_type": 0,
        "meta_classification_type": "U",
        "meta_norad_cat_id": 38091,
        "meta_element_set_no": 999,
        "meta_rev_at_epoch": 5048,
        "meta_bstar": 0,
        "meta_mean_motion_dot": 6.3e-07,
        "meta_mean_motion_ddot": 0,
        "tle_line1": "1 38091U 12008A   25345.67530589  .00000063  00000+0  00000+0 0  9991",
        "tle_line2": "2 38091   3.1069  70.7117 0012576 227.0621  84.7430  1.00275156 50486"
      },
      "geometry": {
        "type": "Point",
        "coordinates": [
          120.57460588378474,
          2.3891071120034613
        ]
      }
    }
  ]
}